{"type": "FeatureCollection", "features": [ {"type": "Feature", "properties": {"norad_id": 40534, "name": "GPS BIIF-9  (PRN 26)", "group": "gps-ops", "lat": 52.125847223259925, "lon": -42.64698190735095, "alt_km": 20035.015582578613, "timestamp": "2025-12-19T16:54:44.519971+00:00", "meta": {"OBJECT_NAME": "GPS BIIF-9  (PRN 26)", "OBJECT_ID": "2015-013A", "EPOCH": "2025-12-18T13:43:57.304128", "MEAN_MOTION": 2.00562317, "ECCENTRICITY": 0.01072792, "INCLINATION": 53.1969, "RA_OF_ASC_NODE": 211.6486, "ARG_OF_PERICENTER": 38.6162, "MEAN_ANOMALY": 322.2412, "EPHEMERIS_TYPE": 0, "CLASSIFICATION_TYPE": "U", "NORAD_CAT_ID": 40534, "ELEMENT_SET_NO": 999, "REV_AT_EPOCH": 7820, "BSTAR": 0, "MEAN_MOTION_DOT": 8.6e-07, "MEAN_MOTION_DDOT": 0}, "tle": {"line1": "1 40534U 15013A   25352.57219102  .00000086  00000+0  00000+0 0  9992", "line2": "2 40534  53.1969 211.6486 0107279  38.6162 322.2412  2.00562317 78200"}}, "geometry": {"type": "Point", "coordinates": [-42.64698190735095, 52.125847223259925]}}, {"type": "Feature", "properties": {"norad_id": 40730, "name": "GPS BIIF-10 (PRN 08)", "group": "gps-ops", "lat": -15.336999410028538, "lon": -96.95555155766385, "alt_km": 19976.84162292316, "timestamp": "2025-12-19T16:54:44.519983+00:00", "meta": {"OBJECT_NAME": "GPS BIIF-10 (PRN 08)", "OBJECT_ID": "2015-033A", "EPOCH": "2025-12-19T05:34:06.019968", "MEAN_MOTION": 2.00565397, "ECCENTRICITY": 0.01113411, "INCLINATION": 54.125, "RA_OF_ASC_NODE": 274.5058, "ARG_OF_PERICENTER": 26.9648, "MEAN_ANOMALY": 333.641, "EPHEMERIS_TYPE": 0, "CLASSIFICATION_TYPE": "U", "NORAD_CAT_ID": 40730, "ELEMENT_SET_NO": 999, "REV_AT_EPOCH": 7638, "BSTAR": 0, "MEAN_MOTION_DOT": -2.6e-07, "MEAN_MOTION_DDOT": 0}, "tle": {"line1": "1 40730U 15033A   25353.23201412 -.00000026  00000+0  00000+0 0  9996", "line2": "2 40730  54.1250 274.5058 0111341  26.9648 333.6410  2.00565397 76381"}}, "geometry": {"type": "Point", "coordinates": [-96.95555155766385, -15.336999410028538]}}, {"type": "Feature", "properties": {"norad_id": 41019, "name": "GPS BIIF-11 (PRN 10)", "group": "gps-ops", "lat": -47.29662543966201, "lon": -7.319621239558102, "alt_km": 20076.07153624589, "timestamp": "2025-12-19T16:54:44.519995+00:00", "meta": {"OBJECT_NAME": "GPS BIIF-11 (PRN 10)", "OBJECT_ID": "2015-062A", "EPOCH": "2025-12-18T07:03:43.989696", "MEAN_MOTION": 2.00567221, "ECCENTRICITY": 0.0110964, "INCLINATION": 56.8362, "RA_OF_ASC_NODE": 37.7874, "ARG_OF_PERICENTER": 230.0867, "MEAN_ANOMALY": 128.9943, "EPHEMERIS_TYPE": 0, "CLASSIFICATION_TYPE": "U", "NORAD_CAT_ID": 41019, "ELEMENT_SET_NO": 999, "REV_AT_EPOCH": 7420, "BSTAR": 0, "MEAN_MOTION_DOT": -6.9e-07, "MEAN_MOTION_DDOT": 0}, "tle": {"line1": "1 41019U 15062A   25352.29425914 -.00000069  00000+0  00000+0 0  9996", "line2": "2 41019  56.8362  37.7874 0110964 230.0867 128.9943  2.00567221 74204"}}, "geometry": {"type": "Point", "coordinates": [-7.319621239558102, -47.29662543966201]}}, {"type": "Feature", "properties": {"norad_id": 41328, "name": "GPS BIIF-12 (PRN 32)", "group": "gps-ops", "lat": -44.106643138324735, "lon": -41.51521017668254, "alt_km": 19943.594885757728, "timestamp": "2025-12-19T16:54:44.520007+00:00", "meta": {"OBJECT_NAME": "GPS BIIF-12 (PRN 32)", "OBJECT_ID": "2016-007A", "EPOCH": "2025-12-18T09:02:43.184544", "MEAN_MOTION": 2.00560483, "ECCENTRICITY": 0.00924431, "INCLINATION": 55.4093, "RA_OF_ASC_NODE": 96.6333, "ARG_OF_PERICENTER": 243.7073, "MEAN_ANOMALY": 115.3258, "EPHEMERIS_TYPE": 0, "CLASSIFICATION_TYPE": "U", "NORAD_CAT_ID": 41328, "ELEMENT_SET_NO": 999, "REV_AT_EPOCH": 7221, "BSTAR": 0, "MEAN_MOTION_DOT": -3.5e-07, "MEAN_MOTION_DDOT": 0}, "tle": {"line1": "1 41328U 16007A   25352.37688871 -.00000035  00000+0  00000+0 0  9994", "line2": "2 41328  55.4093  96.6333 0092443 243.7073 115.3258  2.00560483 72219"}}, "geometry": {"type": "Point", "coordinates": [-41.51521017668254, -44.106643138324735]}}, {"type": "Feature", "properties": {"norad_id": 43873, "name": "GPS BIII-1  (PRN 04)", "group": "gps-ops", "lat": 37.893845473244006, "lon": -112.94735388071481, "alt_km": 20133.382025795574, "timestamp": "2025-12-19T16:54:44.520028+00:00", "meta": {"OBJECT_NAME": "GPS BIII-1  (PRN 04)", "OBJECT_ID": "2018-109A", "EPOCH": "2025-12-18T12:57:04.857120", "MEAN_MOTION": 2.00553911, "ECCENTRICITY": 0.0037524, "INCLINATION": 55.5701, "RA_OF_ASC_NODE": 99.3182, "ARG_OF_PERICENTER": 195.2606, "MEAN_ANOMALY": 175.7707, "EPHEMERIS_TYPE": 0, "CLASSIFICATION_TYPE": "U", "NORAD_CAT_ID": 43873, "ELEMENT_SET_NO": 999, "REV_AT_EPOCH": 5145, "BSTAR": 0, "MEAN_MOTION_DOT": -3e-07, "MEAN_MOTION_DDOT": 0}, "tle": {"line1": "1 43873U 18109A   25352.53963955 -.00000030  00000+0  00000+0 0  9998", "line2": "2 43873  55.5701  99.3182 0037524 195.2606 175.7707  2.00553911 51457"}}, "geometry": {"type": "Point", "coordinates": [-112.94735388071481, 37.893845473244006]}}, {"type": "Feature", "properties": {"norad_id": 44506, "name": "GPS BIII-2  (PRN 18)", "group": "gps-ops", "lat": 23.88584440679059, "lon": -4.155511799543882, "alt_km": 20329.28369975863, "timestamp": "2025-12-19T16:54:44.520052+00:00", "meta": {"OBJECT_NAME": "GPS BIII-2  (PRN 18)", "OBJECT_ID": "2019-056A", "EPOCH": "2025-12-19T05:28:09.023808", "MEAN_MOTION": 2.00566646, "ECCENTRICITY": 0.00577244, "INCLINATION": 55.7191, "RA_OF_ASC_NODE": 338.2952, "ARG_OF_PERICENTER": 198.526, "MEAN_ANOMALY": 206.6724, "EPHEMERIS_TYPE": 0, "CLASSIFICATION_TYPE": "U", "NORAD_CAT_ID": 44506, "ELEMENT_SET_NO": 999, "REV_AT_EPOCH": 4646, "BSTAR": 0, "MEAN_MOTION_DOT": -8.1e-07, "MEAN_MOTION_DDOT": 0}, "tle": {"line1": "1 44506U 19056A   25353.22788222 -.00000081  00000+0  00000+0 0  9999", "line2": "2 44506  55.7191 338.2952 0057724 198.5260 206.6724  2.00566646 46469"}}, "geometry": {"type": "Point", "coordinates": [-4.155511799543882, 23.88584440679059]}}, {"type": "Feature", "properties": {"norad_id": 45854, "name": "GPS BIII-3  (PRN 23)", "group": "gps-ops", "lat": -21.539626028915375, "lon": 20.821287726319376, "alt_km": 20288.580939096508, "timestamp": "2025-12-19T16:54:44.520073+00:00", "meta": {"OBJECT_NAME": "GPS BIII-3  (PRN 23)", "OBJECT_ID": "2020-041A", "EPOCH": "2025-12-19T05:46:39.794304", "MEAN_MOTION": 2.00561972, "ECCENTRICITY": 0.00606096, "INCLINATION": 56.5512, "RA_OF_ASC_NODE": 35.9326, "ARG_OF_PERICENTER": 203.6529, "MEAN_ANOMALY": 154.7876, "EPHEMERIS_TYPE": 0, "CLASSIFICATION_TYPE": "U", "NORAD_CAT_ID": 45854, "ELEMENT_SET_NO": 999, "REV_AT_EPOCH": 4042, "BSTAR": 0, "MEAN_MOTION_DOT": -6.4e-07, "MEAN_MOTION_DDOT": 0}, "tle": {"line1": "1 45854U 20041A   25353.24073836 -.00000064  00000+0  00000+0 0  9993", "line2": "2 45854  56.5512  35.9326 0060609 203.6529 154.7876  2.00561972 40428"}}, "geometry": {"type": "Point", "coordinates": [20.821287726319376, -21.539626028915375]}}, {"type": "Feature", "properties": {"norad_id": 46826, "name": "GPS BIII-4  (PRN 14)", "group": "gps-ops", "lat": -41.36190762902789, "lon": 178.31259054088252, "alt_km": 20220.655562714033, "timestamp": "2025-12-19T16:54:44.520095+00:00", "meta": {"OBJECT_NAME": "GPS BIII-4  (PRN 14)", "OBJECT_ID": "2020-078A", "EPOCH": "2025-12-16T01:06:13.902336", "MEAN_MOTION": 2.00566891, "ECCENTRICITY": 0.00647554, "INCLINATION": 54.0145, "RA_OF_ASC_NODE": 218.2068, "ARG_OF_PERICENTER": 203.3828, "MEAN_ANOMALY": 339.3936, "EPHEMERIS_TYPE": 0, "CLASSIFICATION_TYPE": "U", "NORAD_CAT_ID": 46826, "ELEMENT_SET_NO": 999, "REV_AT_EPOCH": 3783, "BSTAR": 0, "MEAN_MOTION_DOT": 6.7e-07, "MEAN_MOTION_DDOT": 0}, "tle": {"line1": "1 46826U 20078A   25350.04599424  .00000067  00000+0  00000+0 0  9996", "line2": "2 46826  54.0145 218.2068 0064755 203.3828 339.3936  2.00566891 37831"}}, "geometry": {"type": "Point", "coordinates": [178.31259054088252, -41.36190762902789]}}, {"type": "Feature", "properties": {"norad_id": 48859, "name": "GPS BIII-5  (PRN 11)", "group": "gps-ops", "lat": 39.460774070793, "lon": 124.82121345975669, "alt_km": 20194.553823410966, "timestamp": "2025-12-19T16:54:44.520110+00:00", "meta": {"OBJECT_NAME": "GPS BIII-5  (PRN 11)", "OBJECT_ID": "2021-054A", "EPOCH": "2025-12-08T04:14:32.423424", "MEAN_MOTION": 2.00553627, "ECCENTRICITY": 0.0024678, "INCLINATION": 55.2581, "RA_OF_ASC_NODE": 340.1367, "ARG_OF_PERICENTER": 233.3994, "MEAN_ANOMALY": 212.8593, "EPHEMERIS_TYPE": 0, "CLASSIFICATION_TYPE": "U", "NORAD_CAT_ID": 48859, "ELEMENT_SET_NO": 999, "REV_AT_EPOCH": 3292, "BSTAR": 0, "MEAN_MOTION_DOT": -8.6e-07, "MEAN_MOTION_DDOT": 0}, "tle": {"line1": "1 48859U 21054A   25342.17676416 -.00000086  00000+0  00000+0 0  9993", "line2": "2 48859  55.2581 340.1367 0024678 233.3994 212.8593  2.00553627 32922"}}, "geometry": {"type": "Point", "coordinates": [124.82121345975669, 39.460774070793]}}, {"type": "Feature", "properties": {"norad_id": 55268, "name": "GPS BIII-6  (PRN 28)", "group": "gps-ops", "lat": 6.465310920616045, "lon": -28.97647460908028, "alt_km": 20192.396785389563, "timestamp": "2025-12-19T16:54:44.520122+00:00", "meta": {"OBJECT_NAME": "GPS BIII-6  (PRN 28)", "OBJECT_ID": "2023-009A", "EPOCH": "2025-12-17T11:51:56.668896", "MEAN_MOTION": 2.00555417, "ECCENTRICITY": 0.00037978, "INCLINATION": 55.1064, "RA_OF_ASC_NODE": 155.6587, "ARG_OF_PERICENTER": 358.2196, "MEAN_ANOMALY": 17.9493, "EPHEMERIS_TYPE": 0, "CLASSIFICATION_TYPE": "U", "NORAD_CAT_ID": 55268, "ELEMENT_SET_NO": 999, "REV_AT_EPOCH": 2160, "BSTAR": 0, "MEAN_MOTION_DOT": 7.7e-07, "MEAN_MOTION_DDOT": 0}, "tle": {"line1": "1 55268U 23009A   25351.49440589  .00000077  00000+0  00000+0 0  9991", "line2": "2 55268  55.1064 155.6587 0003797 358.2196  17.9493  2.00555417 21607"}}, "geometry": {"type": "Point", "coordinates": [-28.97647460908028, 6.465310920616045]}}]}